[{"OBJECT_NAME":"COSMOS 2407","OBJECT_ID":"2004-028A","EPOCH":"2026-03-09T18:32:11.166144","MEAN_MOTION":13.76325057,"ECCENTRICITY":0.00396651,"INCLINATION":82.9633,"RA_OF_ASC_NODE":148.4649,"ARG_OF_PERICENTER":168.53,"MEAN_ANOMALY":311.3754,"EPHEMERIS_TYPE":0,"CLASSIFICATION_TYPE":"U","NORAD_CAT_ID":28380,"ELEMENT_SET_NO":999,"REV_AT_EPOCH":8620,"BSTAR":5.9261217e-5,"MEAN_MOTION_DOT":7.4e-7,"MEAN_MOTION_DDOT":0},{"OBJECT_NAME":"ATLAS D R\/B","OBJECT_ID":"1966-063C","EPOCH":"2026-03-09T22:53:16.066752","MEAN_MOTION":13.6997632,"ECCENTRICITY":0.00101242,"INCLINATION":144.2319,"RA_OF_ASC_NODE":274.6038,"ARG_OF_PERICENTER":216.8422,"MEAN_ANOMALY":254.8879,"EPHEMERIS_TYPE":0,"CLASSIFICATION_TYPE":"U","NORAD_CAT_ID":2328,"ELEMENT_SET_NO":999,"REV_AT_EPOCH":98663,"BSTAR":6.9020357e-5,"MEAN_MOTION_DOT":3.08e-6,"MEAN_MOTION_DDOT":0}]
